BEAK                    
1 58612U 98067WD  24013.33852282  .00057960  00000+0  88717-3 0  9995
2 58612  51.6406   7.0820 0005930  75.8723 284.2926 15.53776905  4119
CLARK SAT-1 (AMBITIOUS) 
1 58613U 98067WE  24014.03365996  .00112640  00000+0  15963-2 0  9994
2 58613  51.6404   3.4751 0007616  97.0813 263.1045 15.55573708  4194
