<?xml version="1.0" encoding="UTF-8"?>
<ndm xmlns:xsi="http://www.w3.org/2001/XMLSchema-instance" xsi:noNamespaceSchemaLocation="https://sanaregistry.org/r/ndmxml_unqualified/ndmxml-2.0.0-master-2.0.xsd">
  <omm id="CCSDS_OMM_VERS" version="2.0">
    <header>
      <CREATION_DATE/>
      <ORIGINATOR/>
    </header>
    <body>
      <segment>
        <metadata>
          <OBJECT_NAME>BEAK</OBJECT_NAME>
          <OBJECT_ID>1998-067WD</OBJECT_ID>
          <CENTER_NAME>EARTH</CENTER_NAME>
          <REF_FRAME>TEME</REF_FRAME>
          <TIME_SYSTEM>UTC</TIME_SYSTEM>
          <MEAN_ELEMENT_THEORY>SGP4</MEAN_ELEMENT_THEORY>
        </metadata>
        <data>
          <meanElements>
            <EPOCH>2024-01-13T08:07:28.371648</EPOCH>
            <MEAN_MOTION>15.53776905</MEAN_MOTION>
            <ECCENTRICITY>.000593</ECCENTRICITY>
            <INCLINATION>51.6406</INCLINATION>
            <RA_OF_ASC_NODE>7.0820</RA_OF_ASC_NODE>
            <ARG_OF_PERICENTER>75.8723</ARG_OF_PERICENTER>
            <MEAN_ANOMALY>284.2926</MEAN_ANOMALY>
          </meanElements>
          <tleParameters>
            <EPHEMERIS_TYPE>0</EPHEMERIS_TYPE>
            <CLASSIFICATION_TYPE>U</CLASSIFICATION_TYPE>
            <NORAD_CAT_ID>58612</NORAD_CAT_ID>
            <ELEMENT_SET_NO>999</ELEMENT_SET_NO>
            <REV_AT_EPOCH>411</REV_AT_EPOCH>
            <BSTAR>.88717E-3</BSTAR>
            <MEAN_MOTION_DOT>.5796E-3</MEAN_MOTION_DOT>
            <MEAN_MOTION_DDOT>0</MEAN_MOTION_DDOT>
          </tleParameters>
        </data>
      </segment>
    </body>
  </omm>
  <omm id="CCSDS_OMM_VERS" version="2.0">
    <header>
      <CREATION_DATE/>
      <ORIGINATOR/>
    </header>
    <body>
      <segment>
        <metadata>
          <OBJECT_NAME>CLARK SAT-1 (AMBITIOUS)</OBJECT_NAME>
          <OBJECT_ID>1998-067WE</OBJECT_ID>
          <CENTER_NAME>EARTH</CENTER_NAME>
          <REF_FRAME>TEME</REF_FRAME>
          <TIME_SYSTEM>UTC</TIME_SYSTEM>
          <MEAN_ELEMENT_THEORY>SGP4</MEAN_ELEMENT_THEORY>
        </metadata>
        <data>
          <meanElements>
            <EPOCH>2024-01-14T00:48:28.220544</EPOCH>
            <MEAN_MOTION>15.55573708</MEAN_MOTION>
            <ECCENTRICITY>.0007616</ECCENTRICITY>
            <INCLINATION>51.6404</INCLINATION>
            <RA_OF_ASC_NODE>3.4751</RA_OF_ASC_NODE>
            <ARG_OF_PERICENTER>97.0813</ARG_OF_PERICENTER>
            <MEAN_ANOMALY>263.1045</MEAN_ANOMALY>
          </meanElements>
          <tleParameters>
            <EPHEMERIS_TYPE>0</EPHEMERIS_TYPE>
            <CLASSIFICATION_TYPE>U</CLASSIFICATION_TYPE>
            <NORAD_CAT_ID>58613</NORAD_CAT_ID>
            <ELEMENT_SET_NO>999</ELEMENT_SET_NO>
            <REV_AT_EPOCH>419</REV_AT_EPOCH>
            <BSTAR>.15963E-2</BSTAR>
            <MEAN_MOTION_DOT>.11264E-2</MEAN_MOTION_DOT>
            <MEAN_MOTION_DDOT>0</MEAN_MOTION_DDOT>
          </tleParameters>
        </data>
      </segment>
    </body>
  </omm>
</ndm>

